IRIDIUM 921             
1 24873U 97034E   25023.47543707  .00429805  66745-4  15065-2 0  9995
2 24873  86.3628 176.2111 0003900 317.9760  42.1221 15.89196327509707
IRIDIUM 26              
1 24903U 97043A   25023.49329184  .00001269  00000+0  42231-3 0  9995
2 24903  86.4004 171.3498 0001895  98.1779 261.9634 14.36930512436434
IRIDIUM 22              
1 24907U 97043E   25022.46833914  .00001031  00000+0  35022-3 0  9993
2 24907  86.4003 175.1883 0002039  92.4047 267.7383 14.35764819435868
DUMMY MASS 1            
1 24925U 97048A   25023.52242316  .00001169  00000+0  12835-3 0  9995
2 24925  86.3353 202.1489 0004836 313.9737  46.1088 14.86749990483876
DUMMY MASS 2            
1 24926U 97048B   25023.52785022  .00001154  00000+0  12735-3 0  9995
2 24926  86.3352 203.7264 0005984 326.4138  33.6707 14.86503961483654
IRIDIUM 29              
1 24944U 97051A   25023.51660156  .00001203  00000+0  40574-3 0  9995
2 24944  86.3963 204.5083 0002087  84.7078 275.4357 14.36234593432724
IRIDIUM 33              
1 24946U 97051C   25022.50578140  .00000735  00000+0  25279-3 0  9990
2 24946  86.3879 204.1817 0007648 179.0256 181.0956 14.34731699431854
IRIDIUM 28              
1 24948U 97051E   25023.51414188  .00001081  00000+0  35713-3 0  9994
2 24948  86.3973 202.1089 0001924 102.9897 257.1516 14.37174395433134
